[
  {
    "OBJECT_NAME": "STARLINK-31800",
    "OBJECT_ID": "24082N",
    "EPOCH": "2025-11-10T12:24:35.039808",
    "MEAN_MOTION": 15.27584243,
    "ECCENTRICITY": 0.0002218,
    "INCLINATION": 43.0037,
    "RA_OF_ASC_NODE": 93.0174,
    "ARG_OF_PERICENTER": 276.3904,
    "MEAN_ANOMALY": 83.6695,
    "EPHEMERIS_TYPE": 0,
    "CLASSIFICATION_TYPE": "U",
    "NORAD_CAT_ID": 59643,
    "ELEMENT_SET_NO": 999,
    "REV_AT_EPOCH": 8668,
    "BSTAR": 7.475900000000001e-05,
    "MEAN_MOTION_DOT": 1.796e-05,
    "MEAN_MOTION_DDOT": 0.0,
    "TLE_LINE1": "1 59643U 24082N   25314.51707222  .00001796  00000+0  74759-4 0  9992",
    "TLE_LINE2": "2 59643  43.0037  93.0174 0002218 276.3904  83.6695 15.27584243 86680",
    "COMMENT": "Grouped by shell and plane from TLE"
  },
  {
    "OBJECT_NAME": "STARLINK-31796",
    "OBJECT_ID": "24082R",
    "EPOCH": "2025-11-10T16:39:17.889120",
    "MEAN_MOTION": 15.27592682,
    "ECCENTRICITY": 0.0002093,
    "INCLINATION": 43.0038,
    "RA_OF_ASC_NODE": 91.7872,
    "ARG_OF_PERICENTER": 277.6394,
    "MEAN_ANOMALY": 82.422,
    "EPHEMERIS_TYPE": 0,
    "CLASSIFICATION_TYPE": "U",
    "NORAD_CAT_ID": 59646,
    "ELEMENT_SET_NO": 999,
    "REV_AT_EPOCH": 8677,
    "BSTAR": 0.0,
    "MEAN_MOTION_DOT": -1.482e-05,
    "MEAN_MOTION_DDOT": 0.0,
    "TLE_LINE1": "1 59646U 24082R   25314.69395705 -.00001482  00000+0 -44296-4 0  9990",
    "TLE_LINE2": "2 59646  43.0038  91.7872 0002093 277.6394  82.4220 15.27592682 86779",
    "COMMENT": "Grouped by shell and plane from TLE"
  },
  {
    "OBJECT_NAME": "STARLINK-31801",
    "OBJECT_ID": "24082S",
    "EPOCH": "2025-11-10T15:58:48.726336",
    "MEAN_MOTION": 15.27604155,
    "ECCENTRICITY": 0.0001161,
    "INCLINATION": 43.0002,
    "RA_OF_ASC_NODE": 92.4257,
    "ARG_OF_PERICENTER": 264.1311,
    "MEAN_ANOMALY": 95.9409,
    "EPHEMERIS_TYPE": 0,
    "CLASSIFICATION_TYPE": "U",
    "NORAD_CAT_ID": 59647,
    "ELEMENT_SET_NO": 999,
    "REV_AT_EPOCH": 8665,
    "BSTAR": 0.0,
    "MEAN_MOTION_DOT": -6.056e-05,
    "MEAN_MOTION_DDOT": 0.0,
    "TLE_LINE1": "1 59647U 24082S   25314.66584174 -.00006056  00000+0 -21056-3 0  9998",
    "TLE_LINE2": "2 59647  43.0002  92.4257 0001161 264.1311  95.9409 15.27604155 86655",
    "COMMENT": "Grouped by shell and plane from TLE"
  },
  {
    "OBJECT_NAME": "STARLINK-32289",
    "OBJECT_ID": "24152T",
    "EPOCH": "2025-11-11T02:51:38.240640",
    "MEAN_MOTION": 15.30187424,
    "ECCENTRICITY": 0.0002277,
    "INCLINATION": 53.1528,
    "RA_OF_ASC_NODE": 99.4272,
    "ARG_OF_PERICENTER": 86.6173,
    "MEAN_ANOMALY": 273.5088,
    "EPHEMERIS_TYPE": 0,
    "CLASSIFICATION_TYPE": "U",
    "NORAD_CAT_ID": 60737,
    "ELEMENT_SET_NO": 999,
    "REV_AT_EPOCH": 6869,
    "BSTAR": 2.7926000000000003e-05,
    "MEAN_MOTION_DOT": 4.67e-06,
    "MEAN_MOTION_DDOT": 0.0,
    "TLE_LINE1": "1 60737U 24152T   25315.11919260  .00000467  00000+0  27926-4 0  9998",
    "TLE_LINE2": "2 60737  53.1528  99.4272 0002277  86.6173 273.5088 15.30187424 68698",
    "COMMENT": "Grouped by shell and plane from TLE"
  },
  {
    "OBJECT_NAME": "STARLINK-32304",
    "OBJECT_ID": "24152U",
    "EPOCH": "2025-11-11T02:47:05.748864",
    "MEAN_MOTION": 15.3017796,
    "ECCENTRICITY": 9.24e-05,
    "INCLINATION": 53.1585,
    "RA_OF_ASC_NODE": 99.408,
    "ARG_OF_PERICENTER": 81.1113,
    "MEAN_ANOMALY": 278.9993,
    "EPHEMERIS_TYPE": 0,
    "CLASSIFICATION_TYPE": "U",
    "NORAD_CAT_ID": 60738,
    "ELEMENT_SET_NO": 999,
    "REV_AT_EPOCH": 6869,
    "BSTAR": 0.0,
    "MEAN_MOTION_DOT": -1.078e-05,
    "MEAN_MOTION_DDOT": 0.0,
    "TLE_LINE1": "1 60738U 24152U   25315.11603876 -.00001078  00000+0 -24309-4 0  9995",
    "TLE_LINE2": "2 60738  53.1585  99.4080 0000924  81.1113 278.9993 15.30177960 68698",
    "COMMENT": "Grouped by shell and plane from TLE"
  },
  {
    "OBJECT_NAME": "STARLINK-32399",
    "OBJECT_ID": "24191G",
    "EPOCH": "2025-11-11T02:06:37.563264",
    "MEAN_MOTION": 15.27589691,
    "ECCENTRICITY": 0.0001343,
    "INCLINATION": 43.002,
    "RA_OF_ASC_NODE": 96.871,
    "ARG_OF_PERICENTER": 274.0136,
    "MEAN_ANOMALY": 86.0562,
    "EPHEMERIS_TYPE": 0,
    "CLASSIFICATION_TYPE": "U",
    "NORAD_CAT_ID": 61627,
    "ELEMENT_SET_NO": 999,
    "REV_AT_EPOCH": 5948,
    "BSTAR": 6.978400000000001e-05,
    "MEAN_MOTION_DOT": 1.659e-05,
    "MEAN_MOTION_DDOT": 0.0,
    "TLE_LINE1": "1 61627U 24191G   25315.08793476  .00001659  00000+0  69784-4 0  9997",
    "TLE_LINE2": "2 61627  43.0020  96.8710 0001343 274.0136  86.0562 15.27589691 59484",
    "COMMENT": "Grouped by shell and plane from TLE"
  },
  {
    "OBJECT_NAME": "STARLINK-32899",
    "OBJECT_ID": "25031P",
    "EPOCH": "2025-11-11T02:20:17.038752",
    "MEAN_MOTION": 15.27591716,
    "ECCENTRICITY": 0.0001659,
    "INCLINATION": 43.0036,
    "RA_OF_ASC_NODE": 93.4711,
    "ARG_OF_PERICENTER": 278.5953,
    "MEAN_ANOMALY": 81.4711,
    "EPHEMERIS_TYPE": 0,
    "CLASSIFICATION_TYPE": "U",
    "NORAD_CAT_ID": 62994,
    "ELEMENT_SET_NO": 999,
    "REV_AT_EPOCH": 4295,
    "BSTAR": 0.0016414,
    "MEAN_MOTION_DOT": 0.00045198,
    "MEAN_MOTION_DDOT": 0.0,
    "TLE_LINE1": "1 62994U 25031P   25315.09741943  .00045198  00000+0  16414-2 0  9998",
    "TLE_LINE2": "2 62994  43.0036  93.4711 0001659 278.5953  81.4711 15.27591716 42959",
    "COMMENT": "Grouped by shell and plane from TLE"
  },
  {
    "OBJECT_NAME": "STARLINK-32819",
    "OBJECT_ID": "25031Q",
    "EPOCH": "2025-11-10T16:07:14.203488",
    "MEAN_MOTION": 15.27601119,
    "ECCENTRICITY": 0.0001375,
    "INCLINATION": 43.0009,
    "RA_OF_ASC_NODE": 95.4258,
    "ARG_OF_PERICENTER": 266.5048,
    "MEAN_ANOMALY": 93.5646,
    "EPHEMERIS_TYPE": 0,
    "CLASSIFICATION_TYPE": "U",
    "NORAD_CAT_ID": 62995,
    "ELEMENT_SET_NO": 999,
    "REV_AT_EPOCH": 4289,
    "BSTAR": 0.0014813,
    "MEAN_MOTION_DOT": 0.00040751,
    "MEAN_MOTION_DDOT": 0.0,
    "TLE_LINE1": "1 62995U 25031Q   25314.67169217  .00040751  00000+0  14813-2 0  9991",
    "TLE_LINE2": "2 62995  43.0009  95.4258 0001375 266.5048  93.5646 15.27601119 42898",
    "COMMENT": "Grouped by shell and plane from TLE"
  },
  {
    "OBJECT_NAME": "STARLINK-32703",
    "OBJECT_ID": "25031R",
    "EPOCH": "2025-11-11T02:12:53.322048",
    "MEAN_MOTION": 15.2760634,
    "ECCENTRICITY": 8.43e-05,
    "INCLINATION": 43.002,
    "RA_OF_ASC_NODE": 93.4292,
    "ARG_OF_PERICENTER": 271.491,
    "MEAN_ANOMALY": 88.5845,
    "EPHEMERIS_TYPE": 0,
    "CLASSIFICATION_TYPE": "U",
    "NORAD_CAT_ID": 62996,
    "ELEMENT_SET_NO": 999,
    "REV_AT_EPOCH": 4295,
    "BSTAR": 0.0011649,
    "MEAN_MOTION_DOT": 0.00031958,
    "MEAN_MOTION_DDOT": 0.0,
    "TLE_LINE1": "1 62996U 25031R   25315.09228382  .00031958  00000+0  11649-2 0  9991",
    "TLE_LINE2": "2 62996  43.0020  93.4292 0000843 271.4910  88.5845 15.27606340 42953",
    "COMMENT": "Grouped by shell and plane from TLE"
  },
  {
    "OBJECT_NAME": "STARLINK-32881",
    "OBJECT_ID": "25031S",
    "EPOCH": "2025-11-10T19:00:44.444448",
    "MEAN_MOTION": 15.27617634,
    "ECCENTRICITY": 0.0002042,
    "INCLINATION": 43.0046,
    "RA_OF_ASC_NODE": 94.6043,
    "ARG_OF_PERICENTER": 276.2412,
    "MEAN_ANOMALY": 83.8207,
    "EPHEMERIS_TYPE": 0,
    "CLASSIFICATION_TYPE": "U",
    "NORAD_CAT_ID": 62997,
    "ELEMENT_SET_NO": 999,
    "REV_AT_EPOCH": 4291,
    "BSTAR": 0.001318,
    "MEAN_MOTION_DOT": 0.00036227,
    "MEAN_MOTION_DDOT": 0.0,
    "TLE_LINE1": "1 62997U 25031S   25314.79218107  .00036227  00000+0  13180-2 0  9998",
    "TLE_LINE2": "2 62997  43.0046  94.6043 0002042 276.2412  83.8207 15.27617634 42916",
    "COMMENT": "Grouped by shell and plane from TLE"
  },
  {
    "OBJECT_NAME": "STARLINK-32898",
    "OBJECT_ID": "25031T",
    "EPOCH": "2025-11-11T02:03:39.268224",
    "MEAN_MOTION": 15.27604499,
    "ECCENTRICITY": 0.0001928,
    "INCLINATION": 43.0007,
    "RA_OF_ASC_NODE": 93.3774,
    "ARG_OF_PERICENTER": 275.9077,
    "MEAN_ANOMALY": 84.1555,
    "EPHEMERIS_TYPE": 0,
    "CLASSIFICATION_TYPE": "U",
    "NORAD_CAT_ID": 62998,
    "ELEMENT_SET_NO": 999,
    "REV_AT_EPOCH": 4295,
    "BSTAR": 0.0013014,
    "MEAN_MOTION_DOT": 0.00035749,
    "MEAN_MOTION_DDOT": 0.0,
    "TLE_LINE1": "1 62998U 25031T   25315.08587116  .00035749  00000+0  13014-2 0  9995",
    "TLE_LINE2": "2 62998  43.0007  93.3774 0001928 275.9077  84.1555 15.27604499 42955",
    "COMMENT": "Grouped by shell and plane from TLE"
  },
  {
    "OBJECT_NAME": "STARLINK-32658",
    "OBJECT_ID": "25031U",
    "EPOCH": "2025-11-10T15:57:58.879584",
    "MEAN_MOTION": 15.27605816,
    "ECCENTRICITY": 0.000197,
    "INCLINATION": 43.0037,
    "RA_OF_ASC_NODE": 95.3757,
    "ARG_OF_PERICENTER": 275.7616,
    "MEAN_ANOMALY": 84.3011,
    "EPHEMERIS_TYPE": 0,
    "CLASSIFICATION_TYPE": "U",
    "NORAD_CAT_ID": 62999,
    "ELEMENT_SET_NO": 999,
    "REV_AT_EPOCH": 4289,
    "BSTAR": 0.0015657,
    "MEAN_MOTION_DOT": 0.00043109,
    "MEAN_MOTION_DDOT": 0.0,
    "TLE_LINE1": "1 62999U 25031U   25314.66526481  .00043109  00000+0  15657-2 0  9991",
    "TLE_LINE2": "2 62999  43.0037  95.3757 0001970 275.7616  84.3011 15.27605816 42892",
    "COMMENT": "Grouped by shell and plane from TLE"
  },
  {
    "OBJECT_NAME": "STARLINK-32673",
    "OBJECT_ID": "25031V",
    "EPOCH": "2025-11-11T01:48:49.331808",
    "MEAN_MOTION": 15.27623693,
    "ECCENTRICITY": 0.0002334,
    "INCLINATION": 43.0005,
    "RA_OF_ASC_NODE": 93.2975,
    "ARG_OF_PERICENTER": 282.6421,
    "MEAN_ANOMALY": 77.417,
    "EPHEMERIS_TYPE": 0,
    "CLASSIFICATION_TYPE": "U",
    "NORAD_CAT_ID": 63000,
    "ELEMENT_SET_NO": 999,
    "REV_AT_EPOCH": 4295,
    "BSTAR": 0.001616,
    "MEAN_MOTION_DOT": 0.00044536,
    "MEAN_MOTION_DDOT": 0.0,
    "TLE_LINE1": "1 63000U 25031V   25315.07557097  .00044536  00000+0  16160-2 0  9993",
    "TLE_LINE2": "2 63000  43.0005  93.2975 0002334 282.6421  77.4170 15.27623693 42955",
    "COMMENT": "Grouped by shell and plane from TLE"
  }
]